{
    "links": {
        "self": "http://www.neowsapp.com/rest/v1/neo/3835954?api_key=iIulBulltgU6a56xZRHN4H3l9WmuAYTsLGpBGhQ2"
    },
    "id": "3835954",
    "neo_reference_id": "3835954",
    "name": "(2018 VR)",
    "designation": "2018 VR",
    "nasa_jpl_url": "http://ssd.jpl.nasa.gov/sbdb.cgi?sstr=3835954",
    "absolute_magnitude_h": 24.7,
    "estimated_diameter": {
        "kilometers": {
            "estimated_diameter_min": 0.0305179233,
            "estimated_diameter_max": 0.0682401509
        },
        "meters": {
            "estimated_diameter_min": 30.5179232594,
            "estimated_diameter_max": 68.2401509401
        },
        "miles": {
            "estimated_diameter_min": 0.0189629525,
            "estimated_diameter_max": 0.0424024508
        },
        "feet": {
            "estimated_diameter_min": 100.1244233463,
            "estimated_diameter_max": 223.8850168104
        }
    },
    "is_potentially_hazardous_asteroid": false,
    "close_approach_data": [
        {
            "close_approach_date": "2012-04-30",
            "close_approach_date_full": "2012-Apr-30 15:58",
            "epoch_date_close_approach": 1335801480000,
            "relative_velocity": {
                "kilometers_per_second": "10.375333628",
                "kilometers_per_hour": "37351.201060732",
                "miles_per_hour": "23208.5837924309"
            },
            "miss_distance": {
                "astronomical": "0.0889296481",
                "lunar": "34.5936331109",
                "kilometers": "13303685.935609547",
                "miles": "8266527.1164318686"
            },
            "orbiting_body": "Mars"
        },
        {
            "close_approach_date": "2018-11-23",
            "close_approach_date_full": "2018-Nov-23 21:58",
            "epoch_date_close_approach": 1543010280000,
            "relative_velocity": {
                "kilometers_per_second": "6.5366960953",
                "kilometers_per_hour": "23532.1059432485",
                "miles_per_hour": "14621.9354956813"
            },
            "miss_distance": {
                "astronomical": "0.0740756297",
                "lunar": "28.8154199533",
                "kilometers": "11081556.422028739",
                "miles": "6885759.8637210382"
            },
            "orbiting_body": "Earth"
        },
        {
            "close_approach_date": "2025-11-13",
            "close_approach_date_full": "2025-Nov-13 13:01",
            "epoch_date_close_approach": 1763038860000,
            "relative_velocity": {
                "kilometers_per_second": "8.5305768817",
                "kilometers_per_hour": "30710.0767741343",
                "miles_per_hour": "19082.0474266836"
            },
            "miss_distance": {
                "astronomical": "0.1008124233",
                "lunar": "39.2160326637",
                "kilometers": "15081323.795218371",
                "miles": "9371100.0626646798"
            },
            "orbiting_body": "Earth"
        },
        {
            "close_approach_date": "2032-11-03",
            "close_approach_date_full": "2032-Nov-03 09:53",
            "epoch_date_close_approach": 1983088380000,
            "relative_velocity": {
                "kilometers_per_second": "12.1154992363",
                "kilometers_per_hour": "43615.7972505958",
                "miles_per_hour": "27101.1602416271"
            },
            "miss_distance": {
                "astronomical": "0.2045116389",
                "lunar": "79.5550275321",
                "kilometers": "30594505.569649143",
                "miles": "19010544.2303304534"
            },
            "orbiting_body": "Earth"
        },
        {
            "close_approach_date": "2039-10-25",
            "close_approach_date_full": "2039-Oct-25 19:13",
            "epoch_date_close_approach": 2203182780000,
            "relative_velocity": {
                "kilometers_per_second": "16.6151689518",
                "kilometers_per_hour": "59814.6082263216",
                "miles_per_hour": "37166.471428183"
            },
            "miss_distance": {
                "astronomical": "0.3530478495",
                "lunar": "137.3356134555",
                "kilometers": "52815206.293280565",
                "miles": "32817847.406839197"
            },
            "orbiting_body": "Earth"
        }
    ],
    "orbital_data": {
        "orbit_id": "5",
        "orbit_determination_date": "2018-12-30 06:54:49",
        "first_observation_date": "2018-11-01",
        "last_observation_date": "2018-12-08",
        "data_arc_in_days": 37,
        "observations_used": 31,
        "orbit_uncertainty": "7",
        "minimum_orbit_intersection": ".0752667",
        "jupiter_tisserand_invariant": "4.005",
        "epoch_osculation": "2459000.5",
        "eccentricity": ".4289141125567354",
        "semi_major_axis": "1.757675026592072",
        "inclination": "5.903308373997845",
        "ascending_node_longitude": "24.64955885088934",
        "orbital_period": "851.1503855525827",
        "perihelion_distance": "1.003783402398197",
        "perihelion_argument": "60.27649456120387",
        "aphelion_distance": "2.511566650785946",
        "perihelion_time": "2459317.986872514682",
        "mean_anomaly": "225.716709942999",
        "mean_motion": ".4229569839955853",
        "equinox": "J2000",
        "orbit_class": {
            "orbit_class_type": "APO",
            "orbit_class_description": "Near-Earth asteroid orbits which cross the Earth’s orbit similar to that of 1862 Apollo",
            "orbit_class_range": "a (semi-major axis) > 1.0 AU; q (perihelion) < 1.017 AU"
        }
    },
    "is_sentry_object": false
}